{
  "norad_id": 65919,
  "name": "STARLINK-35519",
  "history": [
    {
      "epoch": "2026-05-04T19:07:27.674976Z",
      "apogee_km": 476.0662663529065,
      "perigee_km": 474.3214083217208,
      "latitude_deg": 3.901935246914989e-05,
      "longitude_deg": 115.14328190399704,
      "height_km": 475.8883789314344,
      "semi_major_axis_km": 6853.330837337314,
      "eccentricity": 0.0001273,
      "inclination_deg": 53.1597,
      "raan_deg": 264.6896,
      "arg_perigee_deg": 76.508,
      "mean_anomaly_deg": 283.6063,
      "mean_motion_rev_day": 15.30207111
    },
    {
      "epoch": "2026-05-05T18:38:14.985312Z",
      "apogee_km": 476.07898386572833,
      "perigee_km": 474.35276134417745,
      "latitude_deg": -5.3077894066438716e-05,
      "longitude_deg": 116.9293327480965,
      "height_km": 476.1778579258539,
      "semi_major_axis_km": 6853.352872604953,
      "eccentricity": 0.00012594,
      "inclination_deg": 53.1601,
      "raan_deg": 260.1385,
      "arg_perigee_deg": 94.244,
      "mean_anomaly_deg": 265.8704,
      "mean_motion_rev_day": 15.30199731
    },
    {
      "epoch": "2026-05-07T17:39:52.216992Z",
      "apogee_km": 476.13686757328105,
      "perigee_km": 474.1740846081293,
      "latitude_deg": -6.8964977570810595e-06,
      "longitude_deg": 120.49219731032845,
      "height_km": 475.82050476680354,
      "semi_major_axis_km": 6853.292476090705,
      "eccentricity": 0.0001432,
      "inclination_deg": 53.1612,
      "raan_deg": 251.0378,
      "arg_perigee_deg": 76.2645,
      "mean_anomaly_deg": 283.8515,
      "mean_motion_rev_day": 15.30219959
    },
    {
      "epoch": "2026-05-08T14:02:32.607168Z",
      "apogee_km": 475.8311755855184,
      "perigee_km": 474.4495548686891,
      "latitude_deg": -1.9599263448631478e-05,
      "longitude_deg": 170.041202838592,
      "height_km": 475.7332319616354,
      "semi_major_axis_km": 6853.2773652271035,
      "eccentricity": 0.0001008,
      "inclination_deg": 53.1623,
      "raan_deg": 247.092,
      "arg_perigee_deg": 63.7103,
      "mean_anomaly_deg": 296.4001,
      "mean_motion_rev_day": 15.3022502
    },
    {
      "epoch": "2026-05-09T15:07:55.790112Z",
      "apogee_km": 503.15393888775725,
      "perigee_km": 470.32472728766425,
      "latitude_deg": 1.9912411596639118e-05,
      "longitude_deg": 147.81433390023247,
      "height_km": 494.1570551242853,
      "semi_major_axis_km": 6864.87633308771,
      "eccentricity": 0.0023911,
      "inclination_deg": 53.1595,
      "raan_deg": 242.2421,
      "arg_perigee_deg": 113.628,
      "mean_anomaly_deg": 246.7233,
      "mean_motion_rev_day": 15.26348432
    },
    {
      "epoch": "2026-05-10T16:12:15.336000Z",
      "apogee_km": 476.05024229884293,
      "perigee_km": 474.3574671077313,
      "latitude_deg": -1.380510000176296e-07,
      "longitude_deg": 125.84760195273756,
      "height_km": 476.0544275838624,
      "semi_major_axis_km": 6853.340854703287,
      "eccentricity": 0.0001235,
      "inclination_deg": 53.1596,
      "raan_deg": 237.3865,
      "arg_perigee_deg": 86.782,
      "mean_anomaly_deg": 273.3322,
      "mean_motion_rev_day": 15.30203756
    },
    {
      "epoch": "2026-05-11T15:43:03.080064Z",
      "apogee_km": 475.99106490704617,
      "perigee_km": 474.39149808614457,
      "latitude_deg": -3.2845420421273797e-06,
      "longitude_deg": 127.63301023736388,
      "height_km": 476.15255687880483,
      "semi_major_axis_km": 6853.328281496595,
      "eccentricity": 0.0001167,
      "inclination_deg": 53.1592,
      "raan_deg": 232.8365,
      "arg_perigee_deg": 94.5279,
      "mean_anomaly_deg": 265.5855,
      "mean_motion_rev_day": 15.30207967
    }
  ]
}